SPACEMOBILE-006         
1 67232U 25309A   26070.22484866  .00003148  00000+0  16809-3 0  9996
2 67232  52.9940  60.1556 0010685 185.0257 175.0630 15.18025126 11715
